NORAD_CAT_ID,OBJECT_NAME,OBJECT_TYPE,EPOCH,MEAN_MOTION,ECCENTRICITY,INCLINATION,RA_OF_ASC_NODE,ARG_OF_PERICENTER,MEAN_ANOMALY,BSTAR,MEAN_MOTION_DOT,MEAN_MOTION_DDOT,TLE_LINE0,TLE_LINE1,TLE_LINE2,SEMIMAJOR_AXIS,PERIOD,APOGEE,PERIGEE,DECAYED
51782.0,STARLINK-3616,PAYLOAD,2022-10-25 20:39:50,15.08827403,0.0001841,53.2158,114.512,46.5764,313.5381,-9.8176e-05,-1.85e-05,0.0,0 STARLINK-3616,1 51782U 22017Q   22298.86100132 -.00001850  00000-0 -98176-4 0  9990,2 51782  53.2158 114.5120 0001841  46.5764 313.5381 15.08827403 36370,6917.919,95.438,541.057,538.51,0.0
51782.0,STARLINK-3616,PAYLOAD,2022-10-26 10:58:19,15.08815849,0.0001931,53.2161,111.8359,47.2826,312.8328,9.2497e-05,1.183e-05,0.0,0 STARLINK-3616,1 51782U 22017Q   22299.45716658  .00001183  00000-0  92497-4 0  9999,2 51782  53.2161 111.8359 0001931  47.2826 312.8328 15.08815849 36469,6917.954000000002,95.439,541.155,538.4830000000002,0.0
51782.0,STARLINK-3616,PAYLOAD,2022-10-26 20:30:38,15.08821228,0.0001978,53.2164,110.0521,48.5341,311.582,0.00012583,1.714e-05,0.0,0 STARLINK-3616,1 51782U 22017Q   22299.85460789  .00001714  00000-0  12583-3 0  9991,2 51782  53.2164 110.0521 0001978  48.5341 311.5820 15.08821228 36529,6917.938,95.439,541.1709999999998,538.434,0.0
51782.0,STARLINK-3616,PAYLOAD,2022-10-27 10:49:06,15.08828349,0.0002006999999999,53.2164,107.3756,48.7607,311.3558,0.00014335,1.993e-05,0.0,0 STARLINK-3616,1 51782U 22017Q   22300.45076967  .00001993  00000-0  14335-3 0  9997,2 51782  53.2164 107.3756 0002007  48.7607 311.3558 15.08828349 36616,6917.916,95.438,541.169,538.393,0.0
51782.0,STARLINK-3616,PAYLOAD,2022-10-27 18:46:01,15.08835986,0.0002019,53.2161,105.8893,49.5243,310.5925,0.000138,1.909e-05,0.0,0 STARLINK-3616,1 51782U 22017Q   22300.78196747  .00001909  00000-0  13800-3 0  9995,2 51782  53.2161 105.8893 0002019  49.5243 310.5925 15.08835986 38397,6917.893,95.438,541.154,538.361,0.0
51782.0,STARLINK-3616,PAYLOAD,2022-10-28 04:18:20,15.0884198,0.0002018,53.2162,104.1049,50.1987,309.9183,0.00017393,2.481e-05,0.0,0 STARLINK-3616,1 51782U 22017Q   22301.17940369  .00002481  00000-0  17393-3 0  9993,2 51782  53.2162 104.1049 0002018  50.1987 309.9183 15.08841980 36729,6917.874,95.437,541.135,538.3430000000002,0.0
51782.0,STARLINK-3616,PAYLOAD,2022-10-28 17:01:24,15.08851932,0.0001993,53.2162,101.7259,50.8271,309.2898,0.00020011,2.899e-05,0.0,0 STARLINK-3616,1 51782U 22017Q   22301.70931666  .00002899  00000-0  20011-3 0  9996,2 51782  53.2162 101.7259 0001993  50.8271 309.2898 15.08851932 36802,6917.844,95.437,541.0880000000002,538.33,0.0
51782.0,STARLINK-3616,PAYLOAD,2022-10-28 20:12:10,15.08855495,0.0001975,53.2162,101.1309,51.831,308.2859,0.00022567,3.307e-05,0.0,0 STARLINK-3616,1 51782U 22017Q   22301.84179347  .00003307  00000-0  22567-3 0  9994,2 51782  53.2162 101.1309 0001975  51.8310 308.2859 15.08855495 38555,6917.833000000001,95.437,541.064,538.332,0.0
51782.0,STARLINK-3616,PAYLOAD,2022-10-29 04:09:06,15.08860116,0.0002,53.2163,99.6441,51.9674,308.1498,0.00023813,3.506e-05,0.0,0 STARLINK-3616,1 51782U 22017Q   22302.17298835  .00003506  00000-0  23813-3 0  9991,2 51782  53.2163  99.6441 0002000  51.9674 308.1498 15.08860116 36875,6917.819,95.436,541.067,538.3,0.0
51782.0,STARLINK-3616,PAYLOAD,2022-10-29 20:02:59,15.08835377,0.0002189,53.2161,96.6712,56.2529,303.8672,-7.8074e-05,-1.531e-05,0.0,0 STARLINK-3616,1 51782U 22017Q   22302.83540736 -.00001531  00000-0 -78074-4 0  9992,2 51782  53.2161  96.6712 0002189  56.2529 303.8672 15.08835377 36974,6917.895,95.438,541.274,538.245,0.0
51782.0,STARLINK-3616,PAYLOAD,2022-10-30 03:59:55,15.08834048,0.0002150999999999,53.2156,95.1859,56.1768,303.9429,-0.00012045,-2.204e-05,0.0,0 STARLINK-3616,1 51782U 22017Q   22303.16660886 -.00002204  00000-0 -12045-3 0  9991,2 51782  53.2156  95.1859 0002151  56.1768 303.9429 15.08834048 37029,6917.899,95.438,541.252,538.276,0.0
51782.0,STARLINK-3616,PAYLOAD,2022-10-30 19:53:44,15.08853986,0.0001825,53.2164,92.209,50.2984,309.8169,0.00022516,3.298e-05,0.0,0 STARLINK-3616,1 51782U 22017Q   22303.82899268  .00003298  00000-0  22516-3 0  9998,2 51782  53.2164  92.2090 0001825  50.2984 309.8169 15.08853986 37124,6917.8380000000025,95.437,540.965,538.44,0.0
51782.0,STARLINK-3616,PAYLOAD,2022-10-31 18:09:09,15.08838597,0.0002032,53.2166,88.0476,53.0711,307.0467,0.00016831,2.391e-05,0.0,0 STARLINK-3616,1 51782U 22017Q   22304.75635739  .00002391  00000-0  16831-3 0  9998,2 51782  53.2166  88.0476 0002032  53.0711 307.0467 15.08838597 38995,6917.885,95.438,541.155,538.344,0.0
51782.0,STARLINK-3616,PAYLOAD,2022-11-01 11:38:22,15.08890949,0.0001740999999999,53.2169,84.7758,62.8987,297.2182,-0.00063998,-0.00010473,0.0,0 STARLINK-3616,1 51782U 22017Q   22305.48498717 -.00010473  00000-0 -63998-3 0  9990,2 51782  53.2169  84.7758 0001741  62.8987 297.2182 15.08890949 37377,6917.725,95.434,540.794,538.385,0.0
51782.0,STARLINK-3616,PAYLOAD,2022-11-01 17:59:55,15.08847351,0.0001921,53.2176,83.5876,55.6727,304.4447,4.4808e-05,4.25e-06,0.0,0 STARLINK-3616,1 51782U 22017Q   22305.74994917  .00000425  00000-0  44808-4 0  9996,2 51782  53.2176  83.5876 0001921  55.6727 304.4447 15.08847351 39146,6917.858,95.437,541.052,538.394,0.0
51782.0,STARLINK-3616,PAYLOAD,2022-11-02 11:29:10,15.08836947,0.0001794,53.2172,80.3145,58.7148,301.402,5.074600000000001e-05,5.2e-06,0.0,0 STARLINK-3616,1 51782U 22017Q   22306.47859386  .00000520  00000-0  50746-4 0  9991,2 51782  53.2172  80.3145 0001794  58.7148 301.4020 15.08836947 37528,6917.89,95.438,540.996,538.514,0.0
51782.0,STARLINK-3616,PAYLOAD,2022-11-02 16:15:20,15.0883078,0.0002058,53.2169,79.4233,32.0833,328.0284,-6.0717e-06,-3.85e-06,0.0,0 STARLINK-3616,1 51782U 22017Q   22306.67732056 -.00000385  00000-0 -60717-5 0  9998,2 51782  53.2169  79.4233 0002058  32.0833 328.0284 15.08830780 39282,6917.909000000002,95.438,541.197,538.35,0.0
51782.0,STARLINK-3616,PAYLOAD,2022-11-02 19:26:06,15.08834564,0.0001852,53.2168,78.8274,53.3485,306.7677,2.4169e-05,9.6e-07,0.0,0 STARLINK-3616,1 51782U 22017Q   22306.80979725  .00000096  00000-0  24169-4 0  9996,2 51782  53.2168  78.8274 0001852  53.3485 306.7677 15.08834564 37572,6917.897,95.438,541.043,538.481,0.0
51782.0,STARLINK-3616,PAYLOAD,2022-11-02 21:01:29,15.08836011,0.000194,53.2172,78.5313,47.0358,313.0796,2.6639e-05,1.36e-06,0.0,0 STARLINK-3616,1 51782U 22017Q   22306.87603661  .00000136  00000-0  26639-4 0  9995,2 51782  53.2172  78.5313 0001940  47.0358 313.0796 15.08836011 39311,6917.893,95.438,541.1,538.4159999999998,0.0
51782.0,STARLINK-3616,PAYLOAD,2022-11-03 12:55:19,15.08852708,0.0001935,53.2172,75.5573,45.6371,314.478,0.00022619,3.315e-05,0.0,0 STARLINK-3616,1 51782U 22017Q   22307.53842158  .00003315  00000-0  22619-3 0  9990,2 51782  53.2172  75.5573 0001935  45.6371 314.4780 15.08852708 39419,6917.842,95.437,541.045,538.368,0.0
51782.0,STARLINK-3616,PAYLOAD,2022-11-03 20:52:15,15.08854945,0.0002105,53.216,74.0699,47.5922,312.5248,0.00020358,2.955e-05,0.0,0 STARLINK-3616,1 51782U 22017Q   22307.86962072  .00002955  00000-0  20358-3 0  9991,2 51782  53.2160  74.0699 0002105  47.5922 312.5248 15.08854945 37738,6917.835,95.437,541.156,538.244,0.0
51782.0,STARLINK-3616,PAYLOAD,2022-11-04 11:10:43,15.08849848,0.0001866,53.2162,71.393,48.2201,311.8951,0.00028168,4.199e-05,0.0,0 STARLINK-3616,1 51782U 22017Q   22308.46578008  .00004199  00000-0  28168-3 0  9999,2 51782  53.2162  71.3930 0001866  48.2201 311.8951 15.08849848 39550,6917.85,95.437,541.006,538.424,0.0
51782.0,STARLINK-3616,PAYLOAD,2022-11-04 17:32:15,15.08847592,0.0001626,53.2162,70.2022,62.3405,297.7752,0.00014405,2.006e-05,0.0,0 STARLINK-3616,1 51782U 22017Q   22308.73073768  .00002006  00000-0  14405-3 0  9996,2 51782  53.2162  70.2022 0001626  62.3405 297.7752 15.08847592 37864,6917.857,95.437,540.847,538.597,0.0
51782.0,STARLINK-3616,PAYLOAD,2022-11-05 11:01:30,15.08831474,0.0002216,53.2192,66.9316,101.5021,258.622,-0.00025233,-4.301e-05,0.0,0 STARLINK-3616,1 51782U 22017Q   22309.45938614 -.00004301  00000-0 -25233-3 0  9999,2 51782  53.2192  66.9316 0002216 101.5021 258.6220 15.08831474 39704,6917.906,95.438,541.304,538.238,0.0
51782.0,STARLINK-3616,PAYLOAD,2022-11-05 12:36:54,15.08829031,0.0001928,53.2168,66.6357,49.002,311.1139,-0.00033743,-5.653e-05,0.0,0 STARLINK-3616,1 51782U 22017Q   22309.52562855 -.00005653  00000-0 -33743-3 0  9993,2 51782  53.2168  66.6357 0001928  49.0020 311.1139 15.08829031 37981,6917.9140000000025,95.438,541.113,538.445,0.0
51782.0,STARLINK-3616,PAYLOAD,2022-11-05 18:58:27,15.088351199999998,0.0001896,53.2178,65.4466,58.8129,301.3049,-0.00017524,-3.076e-05,0.0,0 STARLINK-3616,1 51782U 22017Q   22309.79059474 -.00003076  00000-0 -17524-3 0  9996,2 51782  53.2178  65.4466 0001896  58.8129 301.3049 15.08835120 38025,6917.895,95.438,541.072,538.4490000000002,0.0
51782.0,STARLINK-3616,PAYLOAD,2022-11-06 12:27:41,15.08833634,0.0001858,53.2177,62.1757,43.5805,316.5334,-2.5893e-05,-7.000000000000003e-06,0.0,0 STARLINK-3616,1 51782U 22017Q   22310.51923250 -.00000700  00000-0 -25893-4 0  9990,2 51782  53.2177  62.1757 0001858  43.5805 316.5334 15.08833634 39867,6917.9,95.438,541.05,538.48,0.0
51782.0,STARLINK-3616,PAYLOAD,2022-11-07 17:04:39,15.08820683,0.0002076,53.2181,56.8247,37.7198,322.3939,0.00010589,1.397e-05,0.0,0 STARLINK-3616,1 51782U 22017Q   22311.71156424  .00001397  00000-0  10589-3 0  9990,2 51782  53.2181  56.8247 0002076  37.7198 322.3939 15.08820683 40047,6917.939,95.439,541.241,538.368,0.0
51782.0,STARLINK-3616,PAYLOAD,2022-11-08 07:23:05,15.0884668,0.000198,53.2181,54.1481,34.6449,325.4672,0.00016484,2.337e-05,0.0,0 STARLINK-3616,1 51782U 22017Q   22312.30770543  .00002337  00000-0  16484-3 0  9995,2 51782  53.2181  54.1481 0001980  34.6449 325.4672 15.08846680 40139,6917.86,95.437,541.095,538.355,0.0
